ONEWEB-0275             
1 48993U 21060AC  25283.27543522  .00000105  00000+0  24080-3 0  9994
2 48993  87.8965 278.5693 0001798  91.2382 268.8955 13.16594044206679
ONEWEB-0276             
1 48994U 21060AD  25283.23267634  .00000065  00000+0  13573-3 0  9998
2 48994  87.8974 278.5756 0002042  94.3418 265.7947 13.16594090206686
ONEWEB-0277             
1 48995U 21060AE  25283.24536819 -.00000002  00000+0 -39289-4 0  9990
2 48995  87.8958 278.6044 0001646  92.6570 267.4749 13.16592275206670
ONEWEB-0278             
1 48996U 21060AF  25283.23585044 -.00000002  00000+0 -39082-4 0  9995
2 48996  87.8973 278.5719 0002152  89.2647 270.8730 13.16594338206801
ONEWEB-0279             
1 48997U 21060AG  25283.24375303 -.00000047  00000+0 -15678-3 0  9995
2 48997  87.8975 278.5656 0001659  96.7205 263.4114 13.16595807206736
ONEWEB-0280             
1 48998U 21060AH  25283.25879775 -.00000111  00000+0 -32492-3 0  9994
2 48998  87.8974 278.5706 0002198  97.1527 262.9854 13.16592283206676
ONEWEB-0281             
1 48999U 21060AJ  25283.03635649 -.00000049  00000+0 -16222-3 0  9994
2 48999  87.8967 278.6118 0001791  87.1975 272.9361 13.16596014206716
ONEWEB-0282             
1 49000U 21060AK  25283.21843230  .00000027  00000+0  37086-4 0  9991
2 49000  87.8965 278.5861 0001828  94.1661 265.9679 13.16592563206712
